OPS 6582 (TRANSIT 5B-5) 
1 00965U 64083D   22150.40908179  .00000071  00000+0  86792-4 0  9992
2 00965  90.0266 195.3872 0038919 282.3880  88.3820 13.56779442843070
OSCAR 7 (AO-7)          
1 07530U 74089B   22150.40831479 -.00000046  00000+0 -34267-5 0  9997
2 07530 101.9033 130.2221 0012655  76.7281  91.3965 12.53655123175206
UOSAT 2 (UO-11)         
1 14781U 84021B   22150.44431019  .00000690  00000+0  89573-4 0  9992
2 14781  97.6166 138.7006 0009145  30.8108 329.3642 14.83652161 37378
NOAA 9                  
1 15427U 84123A   22150.38293846  .00000057  00000+0  51844-4 0  9997
2 15427  99.0442 122.4851 0014171 213.3949 300.4988 14.16199588934052
LUSAT (LO-19)           
1 20442U 90005G   22150.36659219  .00000075  00000+0  44160-4 0  9997
2 20442  98.7927 114.9529 0010965 217.7637 142.2778 14.33059548690515
ITAMSAT (IO-26)         
1 22826U 93061D   22150.49212524  .00000082  00000+0  49037-4 0  9994
2 22826  98.8821 181.0295 0010138  91.0823 269.1520 14.30516844495841
RADIO ROSTO (RS-15)     
1 23439U 94085A   22150.57019479 -.00000037  00000+0  15882-3 0  9996
2 23439  64.8169 174.5404 0167884 275.5817  82.5980 11.27572340129478
JAS-2 (FO-29)           
1 24278U 96046B   22150.53864972  .00000006  00000+0  43971-4 0  9995
2 24278  98.5170 176.6883 0349738 329.9599  28.1879 13.53115350273187
NOAA 15                 
1 25338U 98030A   22150.52923861  .00000155  00000+0  83276-4 0  9997
2 25338  98.6449 180.2982 0010143 357.0099   3.1019 14.26131773250461
TECHSAT 1B (GO-32)      
1 25397U 98043D   22150.57854101  .00000031  00000+0  33194-4 0  9998
2 25397  98.8169 101.0003 0001948 126.3838 233.7520 14.23754617240881
ISS (ZARYA)             
1 25544U 98067A   22150.71682927  .00010056  00000+0  18532-3 0  9995
2 25544  51.6434  63.1173 0004929 174.4777 224.4798 15.49783338342474
ORSTED                  
1 25635U 99008B   22150.38871165  .00000233  00000+0  63212-4 0  9991
2 25635  96.4623  19.5296 0136725 238.6636 120.1121 14.48467162227667
PHASE 3D (AO-40)        
1 26609U 00072B   22149.46795422 -.00000215  00000+0  00000+0 0  9996
2 26609   6.8919 274.2270 7992798  11.0191 358.8979  1.25588731 98912
PCSAT (NO-44)           
1 26931U 01043C   22150.34621419  .00000069  00000+0  57832-4 0  9992
2 26931  67.0507 105.1346 0007844 266.1218  93.8987 14.30703100 78814
SAUDISAT 1C (SO-50)     
1 27607U 02058C   22150.30017545  .00000474  00000+0  85736-4 0  9999
2 27607  64.5557 357.4530 0077424 297.9823  61.3460 14.76111993 45693
CUTE-1 (CO-55)          
1 27844U 03031E   22150.48955728  .00000198  00000+0  10831-3 0  9993
2 27844  98.6783 158.4475 0010507 147.9774 212.2045 14.22445683981311
CUBESAT XI-IV (CO-57)   
1 27848U 03031J   22150.44694985  .00000171  00000+0  96857-4 0  9992
2 27848  98.6830 158.9288 0010098 161.4315 198.7233 14.22003475981127
MOZHAYETS 4 (RS-22)     
1 27939U 03042A   22150.59995578  .00000798  00000+0  15001-3 0  9999
2 27939  98.1886 291.3278 0011663 263.1884  96.7992 14.67339053998428
INMARSAT 4-F1           
1 28628U 05009A   22150.01145675 -.00000255  00000+0  00000+0 0  9990
2 28628   3.5997  34.8974 0002750  38.1204 322.1011  1.00271940 62831
NOAA 18                 
1 28654U 05018A   22150.42945102  .00000143  00000+0  10110-3 0  9999
2 28654  98.9494 220.8791 0014579  27.0744 333.1185 14.12735495877433
CUBESAT XI-V            
1 28895U 05043F   22150.61596665  .00000763  00000+0  15330-3 0  9998
2 28895  98.1041 282.2721 0016428 192.9947 167.0834 14.64317991884805
METOP-A                 
1 29499U 06044A   22150.57484778  .00001306  00000+0  18064-3 0  9998
2 29499  98.4515 194.6110 0199218  64.3011  87.4297 14.67195440808053
CARTOSAT-2 (IRS-P7)     
1 29710U 07001B   22150.55302727  .00018243  00000+0  45610-3 0  9994
2 29710  97.8655 254.9920 0154029 120.2276 241.4316 15.28801872833505
FALCONSAT-3             
1 30776U 07006E   22150.32347055  .00034258  00000+0  54315-3 0  9997
2 30776  35.4327  18.9457 0003980 297.4734  62.5593 15.52372371846766
CAPE-1                  
1 31130U 07012P   22150.31543365  .00000961  00000+0  21129-3 0  9991
2 31130  98.2690  91.0076 0095078 350.4476   9.4911 14.57090819802452
CARTOSAT-2A             
1 32783U 08021A   22150.62182631  .00000869  00000+0  12549-3 0  9999
2 32783  97.9659 211.0333 0012073 220.4085 139.6221 14.78685311760389
CUTE-1.7+APD II (CO-65) 
1 32785U 08021C   22150.49450966  .00001189  00000+0  13022-3 0  9998
2 32785  97.6559 121.9142 0011102 297.4371  62.5717 14.89540447763882
COMPASS-1               
1 32787U 08021E   22150.38648429  .00002640  00000+0  24194-3 0  9996
2 32787  97.5616 133.0033 0010978 197.6780 162.4061 14.95695222765350
AAUSAT-II               
1 32788U 08021F   22150.19464854  .00003340  00000+0  29203-3 0  9998
2 32788  97.5331 136.1599 0011102 173.4429 186.6941 14.97364465765706
DELFI-C3 (DO-64)        
1 32789U 08021G   22150.50100587  .00010604  00000+0  59553-3 0  9996
2 32789  97.3390 177.4529 0010944  37.4297 322.7695 15.13446782769217
SEEDS II (CO-66)        
1 32791U 08021J   22150.20871715  .00002789  00000+0  27612-3 0  9990
2 32791  97.6101 127.1520 0011048 247.8915 112.1132 14.92591309764557
YUBILEINY (RS-30)       
1 32953U 08025A   22150.51154607  .00000021  00000+0  80971-4 0  9997
2 32953  82.5050 195.0879 0018067 301.6437  58.2879 12.43110279636104
FENGYUN 3A              
1 32958U 08026A   22150.34260441  .00000070  00000+0  53538-4 0  9991
2 32958  98.5014 113.7158 0009939  77.0781 283.1505 14.18718563725655
PRISM (HITOMI)          
1 33493U 09002B   22149.93024007  .00003649  00000+0  30063-3 0  9992
2 33493  98.2309 135.4523 0012948 223.2842 136.7363 14.99700968726215
STARS (KUKAI)           
1 33498U 09002G   22150.53647129  .00001200  00000+0  16604-3 0  9997
2 33498  98.1712  42.2331 0009728 315.9962  44.0474 14.79951634718786
KKS-1 (KISEKI)          
1 33499U 09002H   22150.54895415  .00000652  00000+0  10249-3 0  9991
2 33499  98.2203  32.2961 0009500  21.0401 339.1196 14.75994139717604
NOAA 19                 
1 33591U 09005A   22150.57029083  .00000138  00000+0  99741-4 0  9994
2 33591  99.1488 184.3304 0013065 235.6497 124.3439 14.12570300685666
SWISSCUBE               
1 35932U 09051B   22150.31302536  .00000588  00000+0  14207-3 0  9997
2 35932  98.5706   5.7437 0008751 101.0743 259.1438 14.56844530673459
BEESAT-1                
1 35933U 09051C   22150.13093618  .00000514  00000+0  12555-3 0  9999
2 35933  98.5648   7.1984 0006877 111.5318 248.6613 14.56863051673502
ITUPSAT1                
1 35935U 09051E   22150.54951310  .00000435  00000+0  10992-3 0  9993
2 35935  98.5748   7.6891 0009148 114.3182 245.8971 14.55974006673273
XIWANG-1 (HOPE-1)       
1 36122U 09072B   22150.33446284 -.00000014  00000+0  76109-4 0  9998
2 36122 100.1815 122.3608 0007851  27.9902 332.1633 13.16369236598423
CARTOSAT-2B             
1 36795U 10035A   22150.59233550  .00000769  00000+0  11190-3 0  9997
2 36795  97.9608 211.1600 0012577 304.9791  55.0237 14.78674028641423
TISAT 1                 
1 36799U 10035E   22150.55625325  .00001765  00000+0  17637-3 0  9991
2 36799  98.1841   0.2964 0012507 149.0888 211.1068 14.92819451645290
FENGYUN 3B              
1 37214U 10059A   22150.45253353  .00000065  00000+0  57850-4 0  9991
2 37214  99.0919 156.1063 0023067  47.6344 312.6775 14.14256129598417
JUGNU                   
1 37839U 11058B   22150.61805041  .00000393  00000+0  67378-4 0  9999
2 37839  19.9614 283.6503 0018942 320.5347 139.8127 14.12784225549619
SRMSAT                  
1 37841U 11058D   22150.31581228  .00000379  00000+0  63076-4 0  9992
2 37841  19.9737   4.5523 0011918 144.8151  11.5991 14.10753458548678
M-CUBED & EXP-1 PRIME   
1 37855U 11061F   22150.57352250  .00012305  00000+0  54129-3 0  9990
2 37855 101.7074 260.2027 0154384 116.1377 245.5812 15.12015797578533
HORYU-2                 
1 38340U 12025D   22150.45500027  .00001185  00000+0  17735-3 0  9991
2 38340  98.1947 228.5812 0010035 286.7344  73.2764 14.76602214529580
METOP-B                 
1 38771U 12049A   22150.54986229  .00000083  00000+0  57907-4 0  9999
2 38771  98.6965 210.5665 0001989 101.4693  26.9857 14.21485547503193
SARAL                   
1 39086U 13009A   22150.57304018  .00000052  00000+0  35723-4 0  9997
2 39086  98.5474 336.4794 0001031  29.8209 330.3034 14.32043362483926
AAUSAT 3                
1 39087U 13009B   22150.36946970  .00000661  00000+0  24136-3 0  9995
2 39087  98.4018 350.3856 0012093 325.9132  34.1277 14.36166530484981
STRAND-1                
1 39090U 13009E   22150.10417214  .00000231  00000+0  95613-4 0  9997
2 39090  98.4055 348.7197 0008492 333.4863  26.5887 14.35293869484761
BRITE-AUSTRIA           
1 39091U 13009F   22150.36751651  .00000114  00000+0  54809-4 0  9994
2 39091  98.4069 348.1422 0009977 338.6109  21.4659 14.35270182484833
UNIBRITE                
1 39092U 13009G   22150.52698168  .00000097  00000+0  49071-4 0  9991
2 39092  98.4102 348.0566 0008788 334.0078  26.0665 14.35140713484816
SOMP                    
1 39134U 13015E   22150.30642061  .00013065  00000+0  47353-3 0  9991
2 39134  64.8605 121.4288 0034394 283.5436  76.1864 15.28088773504089
BEESAT-3                
1 39135U 13015F   22150.40766423  .00009261  00000+0  38669-3 0  9995
2 39135  64.8642 156.7199 0037069 290.8950  68.8212 15.23541864503362
BEESAT-2                
1 39136U 13015G   22150.31295314  .00008281  00000+0  36200-3 0  9992
2 39136  64.8727 165.0696 0015256 298.3248  61.6341 15.22591483503151
NEE-01 PEGASO           
1 39151U 13018B   22150.26853771  .00001089  00000+0  14766-3 0  9995
2 39151  97.9896 255.9956 0015789 317.4793  42.5195 14.80901612490982
CUBEBUG-1 (CAPITAN BETO)
1 39153U 13018D   22150.54706745  .00001225  00000+0  16261-3 0  9990
2 39153  98.0109 260.6284 0015551 310.8212  49.1651 14.81589802491109
